{"fetched_at":"2026-07-17T17:37:51.795Z","source":"https://celestrak.org/NORAD/elements/gp.php?GROUP=kuiper&FORMAT=JSON","constellation":"kuiper","records":[{"OBJECT_NAME":"KUIPER-00408","OBJECT_ID":"2026-098F","EPOCH":"2026-07-17T06:37:30.629280","CLASSIFICATION_TYPE":"U","MEAN_MOTION":15.25406331,"ECCENTRICITY":0.00146594,"INCLINATION":51.8742,"RA_OF_ASC_NODE":286.0779,"ARG_OF_PERICENTER":271.8918,"MEAN_ANOMALY":88.0385,"EPHEMERIS_TYPE":0,"NORAD_CAT_ID":68924,"ELEMENT_SET_NO":999,"REV_AT_EPOCH":1192,"BSTAR":-0.00043298352,"MEAN_MOTION_DOT":-0.00011457,"MEAN_MOTION_DDOT":0},{"OBJECT_NAME":"KUIPER-00409","OBJECT_ID":"2026-098G","EPOCH":"2026-07-17T06:00:02.000160","CLASSIFICATION_TYPE":"U","MEAN_MOTION":14.98310626,"ECCENTRICITY":0.00049339,"INCLINATION":51.8933,"RA_OF_ASC_NODE":285.9737,"ARG_OF_PERICENTER":290.5082,"MEAN_ANOMALY":320.6335,"EPHEMERIS_TYPE":0,"NORAD_CAT_ID":68925,"ELEMENT_SET_NO":999,"REV_AT_EPOCH":376,"BSTAR":-0.00047509107,"MEAN_MOTION_DOT":-0.00005976,"MEAN_MOTION_DDOT":0},{"OBJECT_NAME":"KUIPER-00410","OBJECT_ID":"2026-098H","EPOCH":"2026-07-17T06:00:02.000160","CLASSIFICATION_TYPE":"U","MEAN_MOTION":15.25178265,"ECCENTRICITY":0.00136323,"INCLINATION":51.8733,"RA_OF_ASC_NODE":286.1362,"ARG_OF_PERICENTER":254.8313,"MEAN_ANOMALY":347.9103,"EPHEMERIS_TYPE":0,"NORAD_CAT_ID":68926,"ELEMENT_SET_NO":999,"REV_AT_EPOCH":524,"BSTAR":-0.011580549,"MEAN_MOTION_DOT":-0.00284831,"MEAN_MOTION_DDOT":0},{"OBJECT_NAME":"KUIPER-00412","OBJECT_ID":"2026-098J","EPOCH":"2026-07-16T13:40:40.526400","CLASSIFICATION_TYPE":"U","MEAN_MOTION":15.37550126,"ECCENTRICITY":0.0003659,"INCLINATION":51.8777,"RA_OF_ASC_NODE":285.2225,"ARG_OF_PERICENTER":350.0099,"MEAN_ANOMALY":10.0814,"EPHEMERIS_TYPE":0,"NORAD_CAT_ID":68927,"ELEMENT_SET_NO":999,"REV_AT_EPOCH":1187,"BSTAR":0.00024335,"MEAN_MOTION_DOT":0.00008725,"MEAN_MOTION_DDOT":0},{"OBJECT_NAME":"KUIPER-00413","OBJECT_ID":"2026-098K","EPOCH":"2026-07-17T06:00:02.000160","CLASSIFICATION_TYPE":"U","MEAN_MOTION":14.9848481,"ECCENTRICITY":0.00236761,"INCLINATION":51.8913,"RA_OF_ASC_NODE":288.3301,"ARG_OF_PERICENTER":272.8187,"MEAN_ANOMALY":303.4391,"EPHEMERIS_TYPE":0,"NORAD_CAT_ID":68928,"ELEMENT_SET_NO":999,"REV_AT_EPOCH":540,"BSTAR":-0.0012004189,"MEAN_MOTION_DOT":-0.00014835,"MEAN_MOTION_DDOT":0},{"OBJECT_NAME":"KUIPER-00414","OBJECT_ID":"2026-098L","EPOCH":"2026-07-17T07:25:01.189920","CLASSIFICATION_TYPE":"U","MEAN_MOTION":14.79926978,"ECCENTRICITY":0.00010677,"INCLINATION":51.8982,"RA_OF_ASC_NODE":297.5582,"ARG_OF_PERICENTER":279.2409,"MEAN_ANOMALY":80.8433,"EPHEMERIS_TYPE":0,"NORAD_CAT_ID":68929,"ELEMENT_SET_NO":999,"REV_AT_EPOCH":1176,"BSTAR":0.00022062995,"MEAN_MOTION_DOT":0.00001461,"MEAN_MOTION_DDOT":0},{"OBJECT_NAME":"KUIPER-00415","OBJECT_ID":"2026-098M","EPOCH":"2026-07-17T06:00:02.000160","CLASSIFICATION_TYPE":"U","MEAN_MOTION":15.27598585,"ECCENTRICITY":0.00086497,"INCLINATION":51.8787,"RA_OF_ASC_NODE":284.5594,"ARG_OF_PERICENTER":249.7308,"MEAN_ANOMALY":62.9857,"EPHEMERIS_TYPE":0,"NORAD_CAT_ID":68930,"ELEMENT_SET_NO":999,"REV_AT_EPOCH":500,"BSTAR":0.00060741593,"MEAN_MOTION_DOT":0.00016323,"MEAN_MOTION_DDOT":0},{"OBJECT_NAME":"KUIPER-00416","OBJECT_ID":"2026-098N","EPOCH":"2026-07-16T15:02:29.269824","CLASSIFICATION_TYPE":"U","MEAN_MOTION":15.37602798,"ECCENTRICITY":0.00019139,"INCLINATION":51.8756,"RA_OF_ASC_NODE":284.8326,"ARG_OF_PERICENTER":340.7389,"MEAN_ANOMALY":19.3525,"EPHEMERIS_TYPE":0,"NORAD_CAT_ID":68931,"ELEMENT_SET_NO":999,"REV_AT_EPOCH":1188,"BSTAR":0.00036844292,"MEAN_MOTION_DOT":0.00013444,"MEAN_MOTION_DDOT":0},{"OBJECT_NAME":"KUIPER-00420","OBJECT_ID":"2026-098P","EPOCH":"2026-07-16T16:15:00.555264","CLASSIFICATION_TYPE":"U","MEAN_MOTION":15.36750021,"ECCENTRICITY":0.00039476,"INCLINATION":51.877,"RA_OF_ASC_NODE":285.1729,"ARG_OF_PERICENTER":322.9498,"MEAN_ANOMALY":37.1216,"EPHEMERIS_TYPE":0,"NORAD_CAT_ID":68932,"ELEMENT_SET_NO":999,"REV_AT_EPOCH":1188,"BSTAR":0.00031134856,"MEAN_MOTION_DOT":0.00010982,"MEAN_MOTION_DDOT":0},{"OBJECT_NAME":"KUIPER-00421","OBJECT_ID":"2026-098Q","EPOCH":"2026-07-16T15:25:48.383040","CLASSIFICATION_TYPE":"U","MEAN_MOTION":15.30108204,"ECCENTRICITY":0.00072373,"INCLINATION":51.8777,"RA_OF_ASC_NODE":287.1458,"ARG_OF_PERICENTER":237.2101,"MEAN_ANOMALY":122.8186,"EPHEMERIS_TYPE":0,"NORAD_CAT_ID":68933,"ELEMENT_SET_NO":999,"REV_AT_EPOCH":1185,"BSTAR":-0.00037470132,"MEAN_MOTION_DOT":-0.00011432,"MEAN_MOTION_DDOT":0},{"OBJECT_NAME":"KUIPER-00425","OBJECT_ID":"2026-098R","EPOCH":"2026-07-17T06:00:02.000160","CLASSIFICATION_TYPE":"U","MEAN_MOTION":15.07744267,"ECCENTRICITY":0.00125077,"INCLINATION":51.8878,"RA_OF_ASC_NODE":286.7716,"ARG_OF_PERICENTER":262.06,"MEAN_ANOMALY":14.5502,"EPHEMERIS_TYPE":0,"NORAD_CAT_ID":68934,"ELEMENT_SET_NO":999,"REV_AT_EPOCH":521,"BSTAR":-0.0001285489,"MEAN_MOTION_DOT":-0.00002281,"MEAN_MOTION_DDOT":0},{"OBJECT_NAME":"KUIPER-00430","OBJECT_ID":"2026-098S","EPOCH":"2026-07-17T06:00:02.000160","CLASSIFICATION_TYPE":"U","MEAN_MOTION":14.96445886,"ECCENTRICITY":0.00095797,"INCLINATION":51.8897,"RA_OF_ASC_NODE":288.1188,"ARG_OF_PERICENTER":262.5912,"MEAN_ANOMALY":150.7417,"EPHEMERIS_TYPE":0,"NORAD_CAT_ID":68935,"ELEMENT_SET_NO":999,"REV_AT_EPOCH":400,"BSTAR":-0.0026230314,"MEAN_MOTION_DOT":-0.00030236,"MEAN_MOTION_DDOT":0},{"OBJECT_NAME":"KUIPER-00431","OBJECT_ID":"2026-098T","EPOCH":"2026-07-17T06:00:02.000160","CLASSIFICATION_TYPE":"U","MEAN_MOTION":14.82901687,"ECCENTRICITY":0.00100788,"INCLINATION":51.8978,"RA_OF_ASC_NODE":290.2514,"ARG_OF_PERICENTER":260.7441,"MEAN_ANOMALY":84.3919,"EPHEMERIS_TYPE":0,"NORAD_CAT_ID":68936,"ELEMENT_SET_NO":999,"REV_AT_EPOCH":467,"BSTAR":-0.0046251537,"MEAN_MOTION_DOT":-0.00037913,"MEAN_MOTION_DDOT":0},{"OBJECT_NAME":"KUIPER-00432","OBJECT_ID":"2026-098U","EPOCH":"2026-07-17T06:00:02.000160","CLASSIFICATION_TYPE":"U","MEAN_MOTION":15.18245049,"ECCENTRICITY":0.0012909,"INCLINATION":51.8749,"RA_OF_ASC_NODE":285.5019,"ARG_OF_PERICENTER":262.3442,"MEAN_ANOMALY":309.7262,"EPHEMERIS_TYPE":0,"NORAD_CAT_ID":68937,"ELEMENT_SET_NO":999,"REV_AT_EPOCH":379,"BSTAR":-0.0028038318,"MEAN_MOTION_DOT":-0.00058159,"MEAN_MOTION_DDOT":0},{"OBJECT_NAME":"KUIPER-00434","OBJECT_ID":"2026-098V","EPOCH":"2026-07-17T06:00:02.000160","CLASSIFICATION_TYPE":"U","MEAN_MOTION":14.98194196,"ECCENTRICITY":0.00028783,"INCLINATION":51.8876,"RA_OF_ASC_NODE":285.9296,"ARG_OF_PERICENTER":191.5791,"MEAN_ANOMALY":215.4373,"EPHEMERIS_TYPE":0,"NORAD_CAT_ID":68938,"ELEMENT_SET_NO":999,"REV_AT_EPOCH":586,"BSTAR":-0.0012622167,"MEAN_MOTION_DOT":-0.00015371,"MEAN_MOTION_DDOT":0},{"OBJECT_NAME":"KUIPER-00436","OBJECT_ID":"2026-098W","EPOCH":"2026-07-17T06:00:02.000160","CLASSIFICATION_TYPE":"U","MEAN_MOTION":15.02401721,"ECCENTRICITY":0.00074155,"INCLINATION":51.8937,"RA_OF_ASC_NODE":286.18,"ARG_OF_PERICENTER":264.3865,"MEAN_ANOMALY":358.777,"EPHEMERIS_TYPE":0,"NORAD_CAT_ID":68939,"ELEMENT_SET_NO":999,"REV_AT_EPOCH":536,"BSTAR":-0.029205202,"MEAN_MOTION_DOT":-0.00371825,"MEAN_MOTION_DDOT":0}]}
