KUIPER-00408            
1 68924U 26098F   26198.27604895 -.00011457  00000+0 -43298-3 0  9999
2 68924  51.8742 286.0779 0014659 271.8918  88.0385 15.25406331 11923
KUIPER-00409            
1 68925U 26098G   26198.25002315 -.00005976  00000+0 -47509-3 0  9995
2 68925  51.8933 285.9737 0004933 290.5082 320.6335 14.98310626  3765
KUIPER-00410            
1 68926U 26098H   26198.25002315 -.00284831  00000+0 -11581-1 0  9994
2 68926  51.8733 286.1362 0013632 254.8313 347.9103 15.25178265  5249
KUIPER-00412            
1 68927U 26098J   26197.56991350  .00008725  00000+0  24335-3 0  9991
2 68927  51.8777 285.2225 0003659 350.0099  10.0814 15.37550126 11870
KUIPER-00413            
1 68928U 26098K   26198.25002315 -.00014835  00000+0 -12004-2 0  9993
2 68928  51.8913 288.3301 0023676 272.8187 303.4391 14.98484810  5405
KUIPER-00414            
1 68929U 26098L   26198.30904155  .00001461  00000+0  22063-3 0  9999
2 68929  51.8982 297.5582 0001067 279.2409  80.8433 14.79926978 11767
KUIPER-00415            
1 68930U 26098M   26198.25002315  .00016323  00000+0  60742-3 0  9991
2 68930  51.8787 284.5594 0008649 249.7308  62.9857 15.27598585  5008
KUIPER-00416            
1 68931U 26098N   26197.62672766  .00013444  00000+0  36844-3 0  9992
2 68931  51.8756 284.8326 0001913 340.7389  19.3525 15.37602798 11883
KUIPER-00420            
1 68932U 26098P   26197.67708976  .00010982  00000+0  31135-3 0  9993
2 68932  51.8770 285.1729 0003947 322.9498  37.1216 15.36750021 11880
KUIPER-00421            
1 68933U 26098Q   26197.64292110 -.00011432  00000+0 -37470-3 0  9990
2 68933  51.8777 287.1458 0007237 237.2101 122.8186 15.30108204 11853
KUIPER-00425            
1 68934U 26098R   26198.25002315 -.00002281  00000+0 -12855-3 0  9997
2 68934  51.8878 286.7716 0012507 262.0600  14.5502 15.07744267  5215
KUIPER-00430            
1 68935U 26098S   26198.25002315 -.00030236  00000+0 -26230-2 0  9990
2 68935  51.8897 288.1188 0009579 262.5912 150.7417 14.96445886  4008
KUIPER-00431            
1 68936U 26098T   26198.25002315 -.00037913  00000+0 -46252-2 0  9996
2 68936  51.8978 290.2514 0010078 260.7441  84.3919 14.82901687  4672
KUIPER-00432            
1 68937U 26098U   26198.25002315 -.00058159  00000+0 -28038-2 0  9994
2 68937  51.8749 285.5019 0012909 262.3442 309.7262 15.18245049  3790
KUIPER-00434            
1 68938U 26098V   26198.25002315 -.00015371  00000+0 -12622-2 0  9996
2 68938  51.8876 285.9296 0002878 191.5791 215.4373 14.98194196  5866
KUIPER-00436            
1 68939U 26098W   26198.25002315 -.00371825  00000+0 -29205-1 0  9990
2 68939  51.8937 286.1800 0007415 264.3865 358.7770 15.02401721  5360
